LANDSAT 9               
1 49260U 21088A   24264.14103241  .00001328  00000+0  30478-3 0  9992
2 49260  98.2236 332.5593 0001257  86.2278 273.9064 14.57125897158511
